O3B FM17                
1 44114U 19020C   26064.17616335 -.00000027  00000+0  00000+0 0  9994
2 44114   0.0393 340.0791 0002687 358.8284  21.0754  5.00115456126315
O3B FM18                
1 44115U 19020D   26062.52332968 -.00000028  00000+0  00000+0 0  9990
2 44115   0.0519   0.0145 0002751 341.7220  18.2467  5.00115242126362
SES-17                  
1 49332U 21095A   26063.34003264 -.00000284  00000+0  00000+0 0  9990
2 49332   0.0238  64.0844 0001028 278.4956 234.8100  1.00269943 16801
SES-22                  
1 52933U 22071A   26064.27041064  .00000000  00000+0  00000+0 0  9994
2 52933   0.0182 165.1796 0001096 177.5591 138.6347  1.00268648  6486
SES-20                  
1 53960U 22123A   26064.20627701 -.00000109  00000+0  00000+0 0  9995
2 53960   0.0163 109.1110 0001610 314.2769  70.6905  1.00271394 12498
SES-21                  
1 53961U 22123B   26063.97058425  .00000059  00000+0  00000+0 0  9993
2 53961   0.0268  68.6242 0001274 271.7551  40.7495  1.00273978  6161
O3B MPOWER F1           
1 54755U 22174A   26058.53300325 -.00000026  00000+0  00000+0 0  9991
2 54755   0.0641 351.4493 0005158   3.4086 238.9684  5.00103025 59873
O3B MPOWER F2           
1 54756U 22174B   26062.53384886 -.00000028  00000+0  00000+0 0  9993
2 54756   0.1272 326.2177 0046125  76.0907 318.0389  5.00690325 60150
SES-18                  
1 55970U 23038A   26064.27751734 -.00000109  00000+0  00000+0 0  9995
2 55970   0.0579 272.9330 0002377  36.8722 210.0020  1.00272315 11066
SES-19                  
1 55971U 23038B   26064.27127732  .00000079  00000+0  00000+0 0  9996
2 55971   0.0516 288.9516 0001719  53.2268 143.5762  1.00272883 11049
O3B MPOWER F4           
1 56367U 23059A   26048.24074746 -.00000015  00000+0  00000+0 0  9995
2 56367   0.0593   7.9241 0006460 334.3658  17.6828  5.00119607 52601
O3B MPOWER F5           
1 58346U 23175A   26064.16540495 -.00000027  00000+0  00000+0 0  9994
2 58346   0.0398   2.8042 0004141 346.0809  11.0996  5.00115749 44224
ASTRA 1P (SES-24)       
1 60086U 24115A   26063.37128004  .00000108  00000+0  00000+0 0  9992
2 60086   0.0597 335.5167 0005274 347.3044 352.1506  1.00273834  6147
O3B MPOWER F7           
1 62362U 24244A   26063.53272743 -.00000027  00000+0  00000+0 0  9993
2 62362   0.0697   4.9543 0006132 337.5894  17.4287  5.00115206 21292
O3B MPOWER F8           
1 62363U 24244B   26064.09938269 -.00000027  00000+0  00000+0 0  9998
2 62363   0.0520 316.6077 0006633  19.4971  23.8583  5.00115811 15667
